{
    "links": {
        "self": "http://www.neowsapp.com/rest/v1/neo/3715995?api_key=iIulBulltgU6a56xZRHN4H3l9WmuAYTsLGpBGhQ2"
    },
    "id": "3715995",
    "neo_reference_id": "3715995",
    "name": "(2015 HG)",
    "designation": "2015 HG",
    "nasa_jpl_url": "http://ssd.jpl.nasa.gov/sbdb.cgi?sstr=3715995",
    "absolute_magnitude_h": 21.0,
    "estimated_diameter": {
        "kilometers": {
            "estimated_diameter_min": 0.1677084622,
            "estimated_diameter_max": 0.3750075218
        },
        "meters": {
            "estimated_diameter_min": 167.7084621628,
            "estimated_diameter_max": 375.0075217981
        },
        "miles": {
            "estimated_diameter_min": 0.1042091748,
            "estimated_diameter_max": 0.2330187988
        },
        "feet": {
            "estimated_diameter_min": 550.2246310023,
            "estimated_diameter_max": 1230.3396778159
        }
    },
    "is_potentially_hazardous_asteroid": false,
    "close_approach_data": [
        {
            "close_approach_date": "2015-04-05",
            "close_approach_date_full": "2015-Apr-05 02:20",
            "epoch_date_close_approach": 1428200400000,
            "relative_velocity": {
                "kilometers_per_second": "40.6848724848",
                "kilometers_per_hour": "146465.5409452116",
                "miles_per_hour": "91007.9912612066"
            },
            "miss_distance": {
                "astronomical": "0.123987764",
                "lunar": "48.231240196",
                "kilometers": "18548305.40046268",
                "miles": "11525382.536757784"
            },
            "orbiting_body": "Earth"
        }
    ],
    "orbital_data": {
        "orbit_id": "4",
        "orbit_determination_date": "2017-04-06 08:34:23",
        "first_observation_date": "2015-04-16",
        "last_observation_date": "2015-04-22",
        "data_arc_in_days": 6,
        "observations_used": 27,
        "orbit_uncertainty": "9",
        "minimum_orbit_intersection": ".0807846",
        "jupiter_tisserand_invariant": "2.856",
        "epoch_osculation": "2457129.5",
        "eccentricity": ".9500904687928841",
        "semi_major_axis": "2.099712673424656",
        "inclination": "17.73359980990553",
        "ascending_node_longitude": "205.337901198845",
        "orbital_period": "1111.317699408728",
        "perihelion_distance": ".1047956752002647",
        "perihelion_argument": "197.7237856237634",
        "aphelion_distance": "4.094629671649047",
        "perihelion_time": "2457085.010566713770",
        "mean_anomaly": "14.41189678843786",
        "mean_motion": ".3239397700509372",
        "equinox": "J2000",
        "orbit_class": {
            "orbit_class_type": "APO",
            "orbit_class_description": "Near-Earth asteroid orbits which cross the Earth’s orbit similar to that of 1862 Apollo",
            "orbit_class_range": "a (semi-major axis) > 1.0 AU; q (perihelion) < 1.017 AU"
        }
    },
    "is_sentry_object": false
}